FARADAY_PHOENIX         
1 48924U 21059AX  25198.40756603  .00013875  00000+0  30008-3 0  9997
2 48924  97.6884   5.9414 0009990 105.6258 254.6093 15.44559249225600
DEMO8 (TENZING)         
1 48951U 21059CA  25198.42606683  .00011972  00000+0  29068-3 0  9991
2 48951  97.6959   5.1801 0010422 121.0911 239.1359 15.41129390225526
ASTROCAST-0201          
1 48954U 21059CD  25198.43630227  .00032609  00000+0  44505-3 0  9999
2 48954  97.6562   9.6668 0005666 121.7827 238.3980 15.57414246225981
ASTROCAST-0203          
1 48955U 21059CE  25198.46072428  .00033287  00000+0  45861-3 0  9995
2 48955  97.6567   9.2167 0004783 106.1130 254.0652 15.57161704225989
ASTROCAST-0205          
1 48960U 21059CK  25198.41026626  .00033600  00000+0  45357-3 0  9994
2 48960  97.6534   9.4322 0007917  79.6598 280.5548 15.57685193225989
NAPA-2                  
1 48963U 21059CN  25198.72050457  .00017715  00000+0  34218-3 0  9993
2 48963  97.6816   3.1691 0007416 109.0284 251.1770 15.47834328225525
W-CUBE                  
1 48965U 21059CQ  25198.43378962  .00110229  00000+0  67813-3 0  9998
2 48965  97.6681  13.5946 0002442  90.5609 269.5936 15.76890497226130
JILIN-1 GAOFEN 3D01     
1 49004U 21061B   25198.72373809  .00047581  00000+0  66311-3 0  9995
2 49004  97.3443 273.2987 0009235  88.0024 272.2288 15.56739054224552
JILIN-1 GAOFEN 3D03     
1 49006U 21061D   25198.74359933  .00021865  00000+0  48069-3 0  9998
2 49006  97.3406 264.5745 0005769 210.9249 149.1660 15.43999696223990
XINGSHIDAI 10           
1 49007U 21061E   25198.77859052  .00022258  00000+0  49574-3 0  9998
2 49007  97.3398 264.5847 0005682 196.1790 163.9278 15.43608824223993
FENGYUN 3E              
1 49008U 21062A   25198.76021171 -.00000004  00000+0  19012-4 0  9993
2 49008  98.7425 201.0252 0001546  18.2670 341.8562 14.19869881209128
ISS (NAUKA)             
1 49044U 21066A   25198.43039083  .00007747  00000+0  14395-3 0  9990
2 49044  51.6338 157.1576 0002273  88.8960 271.2290 15.49923845225792
LEDSAT                  
1 49069U 21073D   25198.78115542  .00073983  00000+0  73407-3 0  9992
2 49069  97.3865 282.0479 0007398 282.6017  77.4415 15.65522306217400
STARLINK-3100           
1 49144U 21082Q   25198.30578751 -.00000104  00000+0 -93132-6 0  9996
2 49144  69.9997 167.9297 0002977 266.0535  94.0284 14.98330106210720
CUTE                    
1 49263U 21088D   25198.76544864  .00040547  00000+0  76146-3 0  9998
2 49263  97.4493 276.1606 0008935 103.6788 256.5457 15.48457008210333
2021-091B               
1 49316U 21091B   25198.77471492  .00002210  00000+0  11251-3 0  9999
2 49316  97.4511  26.5063 0013650  87.2431 273.0365 15.17771584208242
SDGSAT 1                
1 49387U 21100A   25198.76656893  .00002392  00000+0  11714-3 0  9992
2 49387  97.3128 252.2669 0009355  31.7381 328.4416 15.19072232205131
TEIKYOSAT-4 (OORURI)    
1 49396U 21102B   25198.51347712  .00001783  00000+0  12040-3 0  9990
2 49396  97.4083 235.5708 0012610  11.3301 348.8209 15.07769467202261
Z-SAT                   
1 49399U 21102E   25198.74015003  .00002987  00000+0  16448-3 0  9996
2 49399  97.3779 239.1238 0017088 336.9450  23.1014 15.14666823202759
HIBARI                  
1 49400U 21102F   25198.54681069  .00006700  00000+0  28350-3 0  9990
2 49400  97.3742 244.2508 0012348 309.8421  50.1729 15.23455672203101
KOSEN-1                 
1 49402U 21102H   25198.57717231  .00004857  00000+0  22357-3 0  9998
2 49402  97.3682 242.6713 0014158 309.7059  50.2928 15.20694885203068
GLOBAL-14               
1 49469U 21106A   25197.99635530  .00010463  00000+0  30838-3 0  9994
2 49469  42.0071  97.8407 0005462 250.6301 109.3947 15.35002708206379
GAOFEN-3 02             
1 49495U 21109A   25198.78545287  .00000011  00000+0  16634-4 0  9990
2 49495  98.4112 206.5824 0001139 280.1583  79.9478 14.42212775192119
GLOBAL-12               
1 49772U 21115BA  25198.29925396  .00011559  00000+0  31042-3 0  9992
2 49772  53.1982 192.4691 0001318 356.2559   3.8436 15.38413499204152
GLOBAL-13               
1 49773U 21115BB  25198.40037968  .00012713  00000+0  34050-3 0  9990
2 49773  53.1992 193.2676 0001215  73.4055 286.7083 15.38397033204156
GLOBAL-17               
1 49949U 21120A   25198.43579294  .00010119  00000+0  29604-3 0  9994
2 49949  41.9978 217.0760 0003663 355.1655   4.9147 15.35270110203179
GLOBAL-16               
1 49950U 21120B   25198.47753328  .00009455  00000+0  28265-3 0  9995
2 49950  41.9971 216.5090 0005495 350.3508   9.7224 15.34642707203176
XW-3 (CAS-9)            
1 50466U 21131B   25198.74697929  .00000370  00000+0  12941-3 0  9996
2 50466  98.5107 287.9141 0004670  37.5313 322.6201 14.40849218186949
ION SCV-004             
1 50993U 22002K   25198.59870434  .00003879  00000+0  15346-3 0  9995
2 50993  97.3338 257.5412 0009922 101.0783 259.1571 15.26007416194195
ETV-A1                  
1 51060U 22002CE  25198.71837481  .00006989  00000+0  22698-3 0  9993
2 51060  97.3360 262.0859 0008046 104.4612 255.7523 15.32214455194487
BRO-5                   
1 51061U 22002CF  25198.72295077  .00007146  00000+0  20143-3 0  9993
2 51061  97.3433 266.5474 0008064  98.5098 261.7060 15.36701808194730
VZLUSAT-2               
1 51085U 22002DF  25198.74168825  .00048967  00000+0  60164-3 0  9994
2 51085  97.3299 272.7836 0005456  71.8785 288.3066 15.60129078195222
L-SAR 01A               
1 51284U 22007A   25198.79456602  .00000480  00000+0  57660-4 0  9994
2 51284  97.8108 206.0086 0001602  91.2941 268.8459 14.88412889188734
INSPIRESAT 1            
1 51657U 22013B   25198.56276796  .00024430  00000+0  48391-3 0  9995
2 51657  97.4873 229.3707 0006451 175.4509 184.6800 15.47039523190254
L-SAR 01B               
1 51822U 22018A   25198.76092011  .00000520  00000+0  61999-4 0  9996
2 51822  97.8124 205.9642 0001750  90.7997 269.3420 14.88413757183964
2022-019D               
1 51827U 22019D   25198.79727750  .00015608  00000+0  37931-3 0  9991
2 51827  97.3932 276.6559 0007754 267.7677  92.2681 15.41049962187794
JILIN-1 GAOFEN 03D14    
1 51831U 22019H   25198.73082028  .00021350  00000+0  48438-3 0  9997
2 51831  97.3957 279.0824 0008053 252.0026 108.0344 15.43050484187948
2022-019J               
1 51832U 22019J   25198.73699026  .00001710  00000+0  86291-4 0  9998
2 51832  97.3879 264.7329 0007873 327.3689  32.7058 15.18418910187010
JILIN-1 GAOFEN 03D16    
1 51834U 22019L   25198.75143638  .00023661  00000+0  51585-3 0  9991
2 51834  97.3933 279.5818 0005393 250.5819 109.4847 15.44234832187989
JILIN-1 GAOFEN 03D11    
1 51835U 22019M   25198.75154732  .00021509  00000+0  49253-3 0  9997
2 51835  97.3967 279.2961 0004170 272.8159  87.2611 15.42796920187957
JILIN-1 GAOFEN 03D17    
1 51838U 22019Q   25198.77892215  .00221758  00000+0  98770-3 0  9993
2 51838  97.3928 289.3769 0005531 217.8167 142.2714 15.83696073188629
JILIN-1 GAOFEN 03D15    
1 51839U 22019R   25198.78098474  .00019988  00000+0  48273-3 0  9993
2 51839  97.3940 278.6039 0003128 303.7009  56.3939 15.41210694187937
JILIN-1 GAOFEN 03D10    
1 51840U 22019S   25198.76388896  .00022461  00000+0  51395-3 0  9992
2 51840  97.3945 279.3952 0002286 149.3668 210.7714 15.42816021187962
JILIN-1 GAOFEN 03D12    
1 51841U 22019T   25198.73542072  .00020245  00000+0  48853-3 0  9991
2 51841  97.3926 278.4810 0003110 220.0649 140.0369 15.41233675187922
JILIN-1 GAOFEN 03D18    
1 51844U 22019W   25198.77677631  .00021531  00000+0  49422-3 0  9990
2 51844  97.3920 278.6259 0008562 250.4770 109.5553 15.42695881187844
2022-023F               
1 51951U 22023F   25198.80633941  .00013559  35563-7  57271-3 0  9996
2 51951  63.4869 329.8846 0101052 337.3818  22.2855 15.18337154159222
CZ-4C R/B               
1 52085U 22027B   25198.47780550 -.00000111  00000+0 -16198-4 0  9997
2 52085  63.3926 229.8227 0202629  24.0496 336.9842 13.65447014166338
MERIDIAN 10             
1 52145U 22030A   25197.98810613  .00000285  00000+0  00000+0 0  9997
2 52145  62.6613 176.1044 6742688 273.3444  17.7952  2.00600599 24305
OMNI-L1                 
1 52157U 22033A   25198.18804335  .00000541  00000+0  76873-4 0  9991
2 52157  97.8685 278.8015 0004140 303.3366  56.7450 14.80799234177840
ENMAP                   
1 52159U 22033C   25198.51455485  .00000282  00000+0  49351-4 0  9991
2 52159  97.9786 280.5719 0001403  86.5819 273.5550 14.74959852177328
ARCSAT-1                
1 52161U 22033E   25198.19522819  .00007104  00000+0  15688-3 0  9999
2 52161  97.2925 282.6631 0005144 353.3583   6.7596 15.44166372183850
GLOBAL-18               
1 52196U 22034B   25197.90574718  .00013455  00000+0  34590-3 0  9990
2 52196  52.9859  45.7614 0006974  66.0546 294.1187 15.39590636185275
GAOFEN-3 03             
1 52200U 22035A   25198.75830615  .00000010  00000+0  16295-4 0  9998
2 52200  98.4096 207.1236 0001683  97.7135 262.4246 14.42211474172655
DAQI 1                  
1 52257U 22039A   25198.78567206  .00000219  00000+0  57900-4 0  9999
2 52257  98.2459 138.0584 0002719 187.6259 172.4898 14.57783882173223
JILIN-1 GAOFEN 4A       
1 52388U 22046A   25198.77346023  .00042886  00000+0  70289-3 0  9993
2 52388  97.4874 298.1378 0007207 130.1659 230.0226 15.52322750178436
JILIN-1 GAOFEN 3D05     
1 52390U 22046C   25198.79854492  .00022804  00000+0  52878-3 0  9994
2 52390  97.4858 297.1239 0001221 100.5862 259.5522 15.42416816178412
JILIN-1 GAOFEN 3D07     
1 52392U 22046E   25198.75934057  .00034281  00000+0  62754-3 0  9994
2 52392  97.4955 300.5473 0000451 156.4183 203.7089 15.49268488178563
BRO-6                   
1 52422U 22047AE  25198.70861751  .00009295  00000+0  26312-3 0  9991
2 52422  97.3636 282.0198 0005400 181.1607 178.9625 15.36497353179599
JILIN-1 GAOFEN 3D27     
1 52444U 22048B   25198.79685321  .00018295  00000+0  50284-3 0  9997
2 52444  97.5721 289.9707 0009333 170.2469 189.8958 15.37226702177616
